IRIDIUM 150             
1 43257U 18030J   24144.81092108  .00000654  00000+0  22650-3 0  9999
2 43257  86.3984 245.6975 0002020 102.2673 257.8749 14.34216948322038
IRIDIUM 143             
1 43258U 18030K   24145.21050323  .00000453  00000+0  15463-3 0  9999
2 43258  86.3987 245.5935 0002120 104.2131 255.9300 14.34218310322058
IRIDIUM 161             
1 43478U 18047C   24144.78014173  .00000773  00000+0  22382-3 0  9998
2 43478  86.4516  43.7460 0002333  89.7703 270.3765 14.43278764316328
IRIDIUM 152             
1 43479U 18047D   24145.25298981  .00000633  00000+0  21882-3 0  9992
2 43479  86.3990  43.4077 0002192  86.3878 273.7568 14.34214886314437
IRIDIUM 147             
1 43480U 18047E   24145.18956342  .00000427  00000+0  14533-3 0  9994
2 43480  86.3990  43.4259 0002235  82.8426 277.3024 14.34216682314410
IRIDIUM 110             
1 43481U 18047F   24145.19590692  .00000640  00000+0  22150-3 0  9999
2 43481  86.3994  43.4959 0002287  74.1961 285.9487 14.34215501314403
IRIDIUM 162             
1 43482U 18047G   24144.77387348  .00000822  00000+0  23840-3 0  9994
2 43482  86.4515  43.6490 0002170  81.4203 278.7243 14.43277187316317
IRIDIUM 160             
1 43569U 18061A   24144.65335456  .00000323  00000+0  10829-3 0  9995
2 43569  86.3995  12.1063 0002596  84.2480 275.9012 14.34213423305225
